STARLETTE               
1 07646U 75010A   22254.13967213 -.00000121  00000+0  15845-4 0  9994
2 07646  49.8236 132.0046 0205757 200.6486 158.6001 13.82313382404312
LAGEOS 1                
1 08820U 76039A   22253.73283508  .00000016  00000+0  00000+0 0  9998
2 08820 109.8519  68.2021 0045137 236.6167 119.7927  6.38664839825298
AJISAI (EGS)            
1 16908U 86061A   22254.21258789 -.00000111  00000+0 -93335-4 0  9993
2 16908  50.0101  55.3388 0011134 280.7078 246.4044 12.44497111309524
COSMOS 1989 (ETALON 1)  
1 19751U 89001C   22253.40056497  .00000040  00000+0  00000+0 0  9992
2 19751  64.3221 119.4639 0023820 213.3772 267.0895  2.13156257262049
COSMOS 2024 (ETALON 2)  
1 20026U 89039C   22253.76650574 -.00000085  00000+0  00000+0 0  9995
2 20026  65.5300 357.4950 0018575 218.5588 106.7628  2.13204240259179
LAGEOS 2                
1 22195U 92070B   22253.83275307 -.00000009  00000+0  00000+0 0  9994
2 22195  52.6660  55.8296 0138380 306.1495  52.2604  6.47293696706376
STELLA                  
1 22824U 93061B   22254.50137861 -.00000032  00000+0  60478-5 0  9998
2 22824  98.9618 277.5828 0005344 266.0107 266.1269 14.27392878508813
LARES                   
1 38077U 12006A   22253.63025478 -.00000031  00000+0  44589-4 0  9991
2 38077  69.4914 121.8191 0011439 260.0224  99.9511 12.54931289484595
